[{"OBJECT_NAME":"STARLINK-30226","OBJECT_ID":"2023-113C","EPOCH":"2026-03-09T22:00:01.999584","MEAN_MOTION":15.26027022,"ECCENTRICITY":0.00018877,"INCLINATION":43.0048,"RA_OF_ASC_NODE":14.6037,"ARG_OF_PERICENTER":265.2109,"MEAN_ANOMALY":41.7295,"EPHEMERIS_TYPE":0,"CLASSIFICATION_TYPE":"U","NORAD_CAT_ID":57497,"ELEMENT_SET_NO":999,"REV_AT_EPOCH":577,"BSTAR":0.027167173,"MEAN_MOTION_DOT":0.00769271,"MEAN_MOTION_DDOT":0},{"OBJECT_NAME":"COSMOS 2251 DEB","OBJECT_ID":"1993-036AUE","EPOCH":"2026-03-08T22:06:30.884256","MEAN_MOTION":15.42946288,"ECCENTRICITY":0.00344361,"INCLINATION":73.9832,"RA_OF_ASC_NODE":267.6989,"ARG_OF_PERICENTER":14.478,"MEAN_ANOMALY":345.7407,"EPHEMERIS_TYPE":0,"CLASSIFICATION_TYPE":"U","NORAD_CAT_ID":35891,"ELEMENT_SET_NO":999,"REV_AT_EPOCH":68545,"BSTAR":0.0016060523,"MEAN_MOTION_DOT":0.00072861,"MEAN_MOTION_DDOT":0}]
